{"type": "FeatureCollection", "features": [{"type": "Feature", "properties": {"aeroway": "runway", "elevation": "319", "iata": "RBM", "icao": "EDMS", "length": "1350", "ref": "09/27", "surface": "asphalt", "width": "30"}, "geometry": {"type": "Point", "coordinates": [12.5067572, 48.9016944]}}, {"type": "Feature", "properties": {"aerodrome:type": "private", "aeroway": "aerodrome", "ele": "581'", "iata": "UHE", "icao": "LKKU", "name": "Mezin\u00e1rodn\u00ed leti\u0161t\u011b Kunovice LKKU", "name:cs": "Mezin\u00e1rodn\u00ed leti\u0161t\u011b Kunovice LKKU", "source": "cuzk:km;uhul:ortofoto", "website": "http://www.lkku.cz/aeroklub.php?page=aeroklub/letiste", "wikidata": "Q3490779", "wikipedia": "en:Kunovice Airport"}, "geometry": {"type": "Point", "coordinates": [17.4346415, 49.0190988]}}, {"type": "Feature", "properties": {"addr:city": "Karlovy Vary", "addr:housenumber": "132", "addr:postcode": "36001", "addr:street": "K Leti\u0161ti", "aerodrome:type": "international", "aeroway": "aerodrome", "closest_town": "Karlovy Vary", "ele": "606", "email": "info@airport-k-vary.cz", "iata": "KLV", "icao": "LKKV", "is_in": "CZ", "name": "Leti\u0161t\u011b Karlovy Vary", "name:cs": "Leti\u0161t\u011b Karlovy Vary", "name:en": "Karlovy Vary International Airport", "operator": "Leti\u0161t\u011b Karlovy Vary s.r.o", "phone": "+420 353 360 611", "ref": "KLV", "source": "wikipedia", "start_date": "1929", "website": "www.airport-k-vary.cz", "wikidata": "Q1431669", "wikipedia": "cs:Leti\u0161t\u011b Karlovy Vary"}, "geometry": {"type": "Point", "coordinates": [12.9302622, 50.2000493]}}, {"type": "Feature", "properties": {"aeroway": "aerodrome", "iata": "MKA", "icao": "LKMR", "name": "Leti\u0161t\u011b Mari\u00e1nsk\u00e9 L\u00e1zn\u011b", "ref": "MKA", "source": "uhul:ortofoto, AIP", "type": "public"}, "geometry": {"type": "Point", "coordinates": [12.7283235, 49.9177711]}}, {"type": "Feature", "properties": {"aeroway": "aerodrome", "area": "yes", "ele": "319", "iata": "RBM", "icao": "EDMS", "name": "Flugplatz Straubing-Wallm\u00fchle", "opening_hours": "09:00-19:00", "operator": "Flugplatz Straubing-Wallm\u00fchle GmbH", "url": "http://www.airport-straubing.com/", "wheelchair": "yes"}, "geometry": {"type": "Point", "coordinates": [12.5253329, 48.9014436]}}, {"type": "Feature", "properties": {"aerodrome:type": "public", "aeroway": "aerodrome", "iata": "ILZ", "icao": "LZZI", "name": "\u017dilina", "name:en": "\u017dilina", "phone": "+421415068100", "website": "http://www.letisko.sk", "wikidata": "Q1433348"}, "geometry": {"type": "Point", "coordinates": [18.6125026, 49.2322068]}}, {"type": "Feature", "properties": {"addr:city": "Mo\u0161nov", "addr:housenumber": "401", "addr:postcode": "74251", "aerodrome:type": "international", "aeroway": "aerodrome", "ele": "257", "email": "airport@airport-ostrava.cz", "iata": "OSR", "icao": "LKMT", "name": "Leti\u0161t\u011b Leo\u0161e Jan\u00e1\u010dka Ostrava", "name:en": "Ostrava Leos Janacek Airport", "operator": "Leti\u0161t\u011b Ostrava, a.s.", "phone": "+420 597 471 136", "ref": "OSR", "start_date": "1959", "website": "www.airport-ostrava.cz", "wikidata": "Q922954", "wikipedia": "cs:Leti\u0161t\u011b Leo\u0161e Jan\u00e1\u010dka Ostrava"}, "geometry": {"type": "Point", "coordinates": [18.1240512, 49.7094953]}}, {"type": "Feature", "properties": {"aeroway": "aerodrome", "iata": "OLO", "icao": "LKOL", "name": "Leti\u0161t\u011b Olomouc", "name:de": "Flughafen Olm\u00fctz", "ref": "LKOL", "type": "grass", "wikidata": "Q11824662", "wikipedia": "cs:Leti\u0161t\u011b Olomouc"}, "geometry": {"type": "Point", "coordinates": [17.2061628, 49.5842276]}}, {"type": "Feature", "properties": {"addr:city": "Pardubice", "addr:housenumber": "179", "addr:postcode": "53006", "addr:street": "Pra\u017esk\u00e1", "aerodrome:type": "international", "aeroway": "aerodrome", "closest_town": "Pardubice", "ele": "226", "email": "handling@airport-pardubice.cz", "iata": "PED", "icao": "LKPD", "name": "Leti\u0161t\u011b Pardubice", "name:cs": "Leti\u0161t\u011b Pardubice", "name:en": "Pardubice Airport", "operator": "EBA a. s.", "phone": "+420 466 310 155", "source": "wikipedia", "website": "www.airport-pardubice.cz", "wikidata": "Q2115080", "wikipedia": "cs:Leti\u0161t\u011b Pardubice"}, "geometry": {"type": "Point", "coordinates": [15.7621312, 50.0108916]}}, {"type": "Feature", "properties": {"aeroway": "aerodrome", "iata": "ZBE", "icao": "LKZA", "name": "Leti\u0161t\u011b Z\u00e1b\u0159eh", "note": "P\u016fvodn\u011b z\u00e1lo\u017en\u00ed leti\u0161t\u011b pro Ostrava-Mo\u0161nov (LKMT)", "source": "ourairports.com"}, "geometry": {"type": "Point", "coordinates": [18.0537674, 49.9303633]}}, {"type": "Feature", "properties": {"aeroway": "aerodrome", "iata": "PRV", "icao": "LKPO", "military": "airfield", "name": "Leti\u0161t\u011b P\u0159erov", "name:de": "Flughafen Prerau", "name:en": "P\u0159erov Air Base", "source": "ourairports.com"}, "geometry": {"type": "Point", "coordinates": [17.3838398, 49.419502]}}, {"type": "Feature", "properties": {"aeroway": "aerodrome", "iata": "PZY", "icao": "LZPP", "name": "Pie\u0161\u0165any", "name:en": "Pie\u0161\u0165any International Airport", "ref": "PZY", "wikidata": "Q1432377"}, "geometry": {"type": "Point", "coordinates": [17.8305581, 48.6347544]}}, {"type": "Feature", "properties": {"aeroway": "runway", "ele": "254", "iata": "QLC", "icao": "EPGL", "length": "770", "ref": "10/28", "surface": "grass", "width": "304"}, "geometry": {"type": "Point", "coordinates": [18.6663209, 50.2704416]}}, {"type": "Feature", "properties": {"addr:city": "Praha", "addr:housenumber": "1019/6", "addr:postcode": "16100", "addr:street": "K Leti\u0161ti", "aerodrome:type": "international", "aeroway": "aerodrome", "city_served": "Praha", "ele": "380", "email": "info@prg.aero", "iata": "PRG", "icao": "LKPR", "int_name": "V\u00e1clav Havel Airport Prague", "international_flights": "yes", "name": "Leti\u0161t\u011b V\u00e1clava Havla Praha", "name:cs": "Leti\u0161t\u011b V\u00e1clava Havla Praha", "name:de": "V\u00e1clav-Havel-Flughafen Prag", "name:en": "V\u00e1clav Havel Airport Prague", "name:es": "Aeropuerto de Praga V\u00e1clav Havel", "name:fr": "A\u00e9roport V\u00e1clav Havel Prague", "name:he": "\u05e0\u05de\u05dc \u05d4\u05ea\u05e2\u05d5\u05e4\u05d4 \u05e8\u05d5\u05d6\u05d9\u05e0\u05d4", "name:it": "Aeroporto di Praga-V\u00e1clav Havel", "name:pl": "Port lotniczy Praga imienia V\u00e1clava Havla", "name:pt": "Aeroporto de Praga V\u00e1clav Havel", "name:ru": "\u0410\u044d\u0440\u043e\u043f\u043e\u0440\u0442 \u0438\u043c\u0435\u043d\u0438 \u0412\u0430\u0446\u043b\u0430\u0432\u0430 \u0413\u0430\u0432\u0435\u043b\u0430", "name:zh": "\u5e03\u62c9\u683c\u74e6\u8328\u62c9\u592b\u00b7\u54c8\u7dad\u723e\u570b\u969b\u6a5f\u5834", "operator": "Leti\u0161t\u011b Praha, a.s.", "phone": "+420 220 111 111", "ref": "PRG", "start_date": "1937", "type": "multipolygon", "website": "http://www.prg.aero/", "wikidata": "Q99172", "wikipedia": "cs:Leti\u0161t\u011b V\u00e1clava Havla Praha"}, "geometry": {"type": "Point"}}, {"type": "Feature", "properties": {"aeroway": "aerodrome", "iata": "VOD", "icao": "LKVO", "name": "Leti\u0161t\u011b Vodochody", "twr": "133,075", "type": "multipolygon"}, "geometry": {"type": "Point"}}, {"type": "Feature", "properties": {"aerodrome": "regional", "aerodrome:type": "public", "aeroway": "aerodrome", "city_served": "Altenburg", "ele": "195", "iata": "AOC", "icao": "EDAC", "image": "http://upload.wikimedia.org/wikipedia/commons/1/14/Apron_Leipzig-Altenburg_Airport.JPG", "is_in": "DE", "name": "Leipzig-Altenburg Airport", "name:de": "Leipzig-Altenburg Airport", "name:en": "Leipzig-Altenburg Airport", "name:es": "Aeropuerto de Leipzig-Altenburg", "old_name": "Flugplatz Altenburg-Nobitz", "operator": "Flugplatz Altenburg-Nobitz GmbH", "source": "wikipedia", "type": "multipolygon", "website": "www.leipzig-altenburg-airport.de", "wikidata": "Q700846", "wikipedia": "de:Leipzig-Altenburg Airport"}, "geometry": {"type": "Point"}}]}