{"type": "FeatureCollection", "features": [{"type": "Feature", "properties": {"amenity": "ferry_terminal", "cargo": "passengers", "name": "Lihovar"}, "geometry": {"type": "Point", "coordinates": [14.4109598, 50.0485417]}}, {"type": "Feature", "properties": {"amenity": "ferry_terminal", "cargo": "passengers", "name": "Jir\u00e1skovo n\u00e1m\u011bst\u00ed", "name:de": "Jir\u00e1sek-Platz", "wheelchair": "no"}, "geometry": {"type": "Point", "coordinates": [14.4134925, 50.0755559]}}, {"type": "Feature", "properties": {"amenity": "ferry_terminal", "cargo": "passengers", "description": "Bad Schandau - Bahnhof Bad Schandau - Krippen - Postelwitz", "ft_link": "www.freietonne.de?edit=18268", "name": "F\u00e4hren Bad Schandau"}, "geometry": {"type": "Point", "coordinates": [14.1520768, 50.9165873]}}, {"type": "Feature", "properties": {"amenity": "ferry_terminal", "name": "Blasewitz"}, "geometry": {"type": "Point", "coordinates": [13.8106125, 51.0516962]}}, {"type": "Feature", "properties": {"amenity": "ferry_terminal", "cargo": "passengers;bicycle", "name": "Laubegast"}, "geometry": {"type": "Point", "coordinates": [13.8379798, 51.031855]}}, {"type": "Feature", "properties": {"amenity": "ferry_terminal", "cargo": "passengers;bicycle", "name": "Niederpoyritz", "operator": "DVB AG"}, "geometry": {"type": "Point", "coordinates": [13.8392991, 51.0321403]}}, {"type": "Feature", "properties": {"amenity": "ferry_terminal", "cargo": "passengers", "name": "Roztoky"}, "geometry": {"type": "Point", "coordinates": [14.4026796, 50.1662534]}}, {"type": "Feature", "properties": {"amenity": "ferry_terminal", "cargo": "passengers", "name": "\u017divoho\u0161\u0165"}, "geometry": {"type": "Point", "coordinates": [14.4242268, 49.7573577]}}, {"type": "Feature", "properties": {"amenity": "ferry_terminal", "description": "Ruhestelle am rechten Ufer", "ferry": "non_free", "ft_link": "www.freietonne.de?edit=18298", "name": "Rathen Nord", "waterway:sign": "ferry", "wheelchair": "yes", "wheelchair:description": "unfreundliches Personal"}, "geometry": {"type": "Point", "coordinates": [14.0804695, 50.9576774]}}, {"type": "Feature", "properties": {"amenity": "ferry_terminal", "name": "Lochm\u00fchle"}, "geometry": {"type": "Point", "coordinates": [13.0165362, 51.030686]}}, {"type": "Feature", "properties": {"amenity": "ferry_terminal", "name": "H\u00f6fchen"}, "geometry": {"type": "Point", "coordinates": [13.0006205, 51.0319033]}}, {"type": "Feature", "properties": {"amenity": "ferry_terminal", "name:de": "Bootsanlegestelle Untere Wilde Klamm"}, "geometry": {"type": "Point", "coordinates": [14.3032362, 50.86423]}}, {"type": "Feature", "properties": {"amenity": "ferry_terminal"}, "geometry": {"type": "Point", "coordinates": [14.2856883, 50.8701916]}}, {"type": "Feature", "properties": {"amenity": "ferry_terminal", "cargo": "passengers", "name": "Hirschm\u00fchle"}, "geometry": {"type": "Point", "coordinates": [14.2296698, 50.8913817]}}, {"type": "Feature", "properties": {"amenity": "ferry_terminal", "cargo": "passengers", "ft_link": "www.freietonne.de?edit=18257", "name": "Schmilka"}, "geometry": {"type": "Point", "coordinates": [14.2290302, 50.8905129]}}, {"type": "Feature", "properties": {"amenity": "ferry_terminal", "name": "Rathen S\u00fcd"}, "geometry": {"type": "Point", "coordinates": [14.079543, 50.9570282]}}, {"type": "Feature", "properties": {"amenity": "ferry_terminal", "name": "F\u00e4hre Pr\u00fcfening", "waterway:sign": "ferry"}, "geometry": {"type": "Point", "coordinates": [12.031173, 49.005247]}}, {"type": "Feature", "properties": {"amenity": "ferry_terminal", "name": "F\u00e4hre Pr\u00fcfening"}, "geometry": {"type": "Point", "coordinates": [12.0326594, 49.0062817]}}, {"type": "Feature", "properties": {"amenity": "ferry_terminal", "cargo": "passengers", "name": "Dvorce \u2013 \u017dlut\u00e9 L\u00e1zn\u011b"}, "geometry": {"type": "Point", "coordinates": [14.412661, 50.0476308]}}, {"type": "Feature", "properties": {"amenity": "ferry_terminal", "bicycle": "yes", "cargo": "passengers", "foot": "yes", "name": "K\u00f6nigstein", "wheelchair": "yes"}, "geometry": {"type": "Point", "coordinates": [14.0759323, 50.9195416]}}, {"type": "Feature", "properties": {"amenity": "ferry_terminal", "cargo": "passengers", "name": "Halbestadt", "wheelchair": "yes"}, "geometry": {"type": "Point", "coordinates": [14.0758248, 50.9202343]}}, {"type": "Feature", "properties": {"amenity": "ferry_terminal", "cargo": "passengers", "name": "V\u00fdto\u0148", "name:de": "Fl\u00f6\u00dfermaut"}, "geometry": {"type": "Point", "coordinates": [14.4145482, 50.0674014]}}, {"type": "Feature", "properties": {"amenity": "ferry_terminal", "cargo": "passengers, bicycles, no cars", "name": "Birkwitz", "wheelchair": "limited"}, "geometry": {"type": "Point", "coordinates": [13.8852908, 50.9801808]}}, {"type": "Feature", "properties": {"amenity": "ferry_terminal", "cargo": "passengers", "name": "Pirna-Copitz", "wheelchair": "yes"}, "geometry": {"type": "Point", "coordinates": [13.9399892, 50.9653071]}}, {"type": "Feature", "properties": {"amenity": "ferry_terminal", "cargo": "passengers", "wheelchair": "yes"}, "geometry": {"type": "Point", "coordinates": [13.9398904, 50.9644445]}}, {"type": "Feature", "properties": {"amenity": "ferry_terminal", "cargo": "passengers,vehicle", "name": "P\u0159\u00edvoz v Darov\u00e9"}, "geometry": {"type": "Point", "coordinates": [13.5194885, 49.8414626]}}, {"type": "Feature", "properties": {"amenity": "ferry_terminal", "cargo": "passengers,vehicle", "name": "P\u0159\u00edvoz v Darov\u00e9"}, "geometry": {"type": "Point", "coordinates": [13.5201319, 49.8412231]}}, {"type": "Feature", "properties": {"amenity": "ferry_terminal", "cargo": "passengers", "name": "Krippen Bornsteg", "wheelchair": "yes"}, "geometry": {"type": "Point", "coordinates": [14.151393, 50.9156673]}}, {"type": "Feature", "properties": {"amenity": "ferry_terminal", "name": "Tanneberg"}, "geometry": {"type": "Point", "coordinates": [12.9801768, 51.0276565]}}, {"type": "Feature", "properties": {"amenity": "ferry_terminal", "name": "Dampferanlegestelle Loschwitz", "wheelchair": "yes"}, "geometry": {"type": "Point", "coordinates": [13.8110352, 51.0531545]}}, {"type": "Feature", "properties": {"amenity": "ferry_terminal", "cargo": "passengers", "name": "Klec\u00e1nky", "name:cs": "Klec\u00e1nky", "name:de": "Klein Kletzan"}, "geometry": {"type": "Point", "coordinates": [14.4043913, 50.1664247]}}, {"type": "Feature", "properties": {"amenity": "ferry_terminal", "cargo": "passengers", "name": "P\u0159\u00edvoz Lib\u010dice - Dol"}, "geometry": {"type": "Point", "coordinates": [14.3632794, 50.2033293]}}, {"type": "Feature", "properties": {"amenity": "ferry_terminal", "cargo": "passengers", "name": "P\u0159\u00edvoz Lib\u010dice - Dol"}, "geometry": {"type": "Point", "coordinates": [14.3649292, 50.2038726]}}, {"type": "Feature", "properties": {"amenity": "ferry_terminal", "name": "F\u00e4hre Anna (nur im Sommer)", "wheelchair": "no"}, "geometry": {"type": "Point", "coordinates": [13.0062758, 50.9444936]}}, {"type": "Feature", "properties": {"amenity": "ferry_terminal", "cargo": "passengers", "name": "Z\u00e1mky", "ref": "U607Z11"}, "geometry": {"type": "Point", "coordinates": [14.3934973, 50.1357645]}}, {"type": "Feature", "properties": {"amenity": "ferry_terminal", "cargo": "passengers", "name": "Sedlec"}, "geometry": {"type": "Point", "coordinates": [14.39202, 50.134612]}}, {"type": "Feature", "properties": {"amenity": "ferry_terminal", "source": "survey"}, "geometry": {"type": "Point", "coordinates": [13.5290144, 49.8216661]}}, {"type": "Feature", "properties": {"amenity": "ferry_terminal", "source": "survey"}, "geometry": {"type": "Point", "coordinates": [13.5284166, 49.8213998]}}, {"type": "Feature", "properties": {"amenity": "ferry_terminal", "name": "Falkenhain", "wheelchair": "yes"}, "geometry": {"type": "Point", "coordinates": [12.9940524, 51.0294638]}}, {"type": "Feature", "properties": {"amenity": "ferry_terminal", "wheelchair": "no"}, "geometry": {"type": "Point", "coordinates": [14.2758335, 50.8696394]}}, {"type": "Feature", "properties": {"amenity": "ferry_terminal", "name": "Inge Bor\u0161ov"}, "geometry": {"type": "Point", "coordinates": [14.4377007, 48.9250976]}}, {"type": "Feature", "properties": {"amenity": "ferry_terminal", "cargo": "passengers", "name": "H\u0159ensko"}, "geometry": {"type": "Point", "coordinates": [14.2361822, 50.8749001]}}, {"type": "Feature", "properties": {"amenity": "ferry_terminal", "cargo": "passengers, bicycles, no cars", "name": "Heidenau", "wheelchair": "limited"}, "geometry": {"type": "Point", "coordinates": [13.8836418, 50.9805985]}}, {"type": "Feature", "properties": {"amenity": "ferry_terminal", "description": "Auto-und Personenf\u00e4hre", "ferry": "non_free", "name": "F\u00e4hre Sandbach", "waterway:sign": "ferry", "wheelchair": "yes"}, "geometry": {"type": "Point", "coordinates": [13.2675811, 48.6075306]}}, {"type": "Feature", "properties": {"amenity": "ferry_terminal", "name": "Bootsstation Untere Schleuse"}, "geometry": {"type": "Point", "coordinates": [14.387689, 50.9048139]}}, {"type": "Feature", "properties": {"amenity": "ferry_terminal", "cargo": "passengers", "name": "N\u00e1dra\u017e\u00ed Mod\u0159any"}, "geometry": {"type": "Point", "coordinates": [14.4028558, 50.0023517]}}, {"type": "Feature", "properties": {"amenity": "ferry_terminal", "cargo": "passengers", "name": "Lahovi\u010dky"}, "geometry": {"type": "Point", "coordinates": [14.4013384, 50.0022527]}}, {"type": "Feature", "properties": {"amenity": "ferry_terminal", "cargo": "passenger transport", "name": "Hr\u00e1z", "source": "shipping station"}, "geometry": {"type": "Point", "coordinates": [13.168314, 49.7926575]}}, {"type": "Feature", "properties": {"amenity": "ferry_terminal", "cargo": "passengers;bicycle", "name": "Hrad Veve\u0159\u00ed"}, "geometry": {"type": "Point", "coordinates": [16.4630848, 49.2582673]}}, {"type": "Feature", "properties": {"amenity": "ferry_terminal", "cargo": "passengers;bicycle", "name": "Cyklistick\u00e1"}, "geometry": {"type": "Point", "coordinates": [16.4814577, 49.2577104]}}, {"type": "Feature", "properties": {"amenity": "ferry_terminal", "mooring": "ferry", "name": "Pillnitz F\u00e4hre;Pillnitz", "operator": "DVB", "wheelchair": "limited"}, "geometry": {"type": "Point", "coordinates": [13.8633658, 51.0110915]}}, {"type": "Feature", "properties": {"amenity": "ferry_terminal", "mooring": "ferry", "name": "Kleinzschachwitz F\u00e4hre;Kleinschachwitz", "operator": "DVB", "wheelchair": "limited"}, "geometry": {"type": "Point", "coordinates": [13.8620653, 51.0102096]}}, {"type": "Feature", "properties": {"amenity": "ferry_terminal", "cargo": "passengers", "name": "Sch\u00f6na", "wheelchair": "no"}, "geometry": {"type": "Point", "coordinates": [14.2350084, 50.8752465]}}, {"type": "Feature", "properties": {"amenity": "ferry_terminal", "cargo": "passengers", "name": "V\u00a0Podbab\u011b"}, "geometry": {"type": "Point", "coordinates": [14.395411, 50.1226428]}}, {"type": "Feature", "properties": {"amenity": "ferry_terminal", "cargo": "passengers;bicycle"}, "geometry": {"type": "Point", "coordinates": [14.060309, 50.5389182]}}, {"type": "Feature", "properties": {"amenity": "ferry_terminal", "cargo": "passengers;bicycle"}, "geometry": {"type": "Point", "coordinates": [14.0622272, 50.5392099]}}, {"type": "Feature", "properties": {"amenity": "ferry_terminal", "name": "Dampferanlegestelle Pillnitz", "wheelchair": "limited"}, "geometry": {"type": "Point", "coordinates": [13.8729534, 51.0059101]}}, {"type": "Feature", "properties": {"amenity": "ferry_terminal", "cargo": "passengers", "name": "Bystrc"}, "geometry": {"type": "Point", "coordinates": [16.516497, 49.2300802]}}, {"type": "Feature", "properties": {"amenity": "ferry_terminal", "cargo": "passengers", "name": "Koz\u00ed horka"}, "geometry": {"type": "Point", "coordinates": [16.5088354, 49.2342501]}}, {"type": "Feature", "properties": {"amenity": "ferry_terminal", "cargo": "passengers", "name": "Sokolsk\u00e9 koupali\u0161t\u011b"}, "geometry": {"type": "Point", "coordinates": [16.512353, 49.2405553]}}, {"type": "Feature", "properties": {"amenity": "ferry_terminal", "cargo": "passengers", "name": "U kotvy"}, "geometry": {"type": "Point", "coordinates": [16.5016483, 49.2416213]}}, {"type": "Feature", "properties": {"amenity": "ferry_terminal", "cargo": "passengers", "name": "Osada"}, "geometry": {"type": "Point", "coordinates": [16.5023544, 49.2460637]}}, {"type": "Feature", "properties": {"amenity": "ferry_terminal", "cargo": "passengers", "name": "Rokle"}, "geometry": {"type": "Point", "coordinates": [16.4938209, 49.2484147]}}, {"type": "Feature", "properties": {"amenity": "ferry_terminal", "name": "Veversk\u00e1 B\u00edt\u00fd\u0161ka", "name:de": "Eichhorn Bittischka"}, "geometry": {"type": "Point", "coordinates": [16.4567139, 49.2758552]}}, {"type": "Feature", "properties": {"amenity": "ferry_terminal", "cargo": "bicycle"}, "geometry": {"type": "Point", "coordinates": [14.1460601, 50.6682166]}}, {"type": "Feature", "properties": {"amenity": "ferry_terminal"}, "geometry": {"type": "Point", "coordinates": [14.1458396, 50.6671674]}}, {"type": "Feature", "properties": {"amenity": "ferry_terminal", "cargo": "passengers", "name": "Podho\u0159\u00ed", "ref": "U582Z11", "wheelchair": "yes"}, "geometry": {"type": "Point", "coordinates": [14.3978463, 50.1224338]}}, {"type": "Feature", "properties": {"amenity": "ferry_terminal", "cargo": "passengers", "name": "Bad Schandau - Bahnhof"}, "geometry": {"type": "Point", "coordinates": [14.1404344, 50.9197212]}}, {"type": "Feature", "properties": {"amenity": "ferry_terminal", "name": "Lodn\u00ed p\u0159ekladi\u0161t\u011b Loub\u00ed"}, "geometry": {"type": "Point", "coordinates": [14.2193959, 50.7861522]}}, {"type": "Feature", "properties": {"amenity": "ferry_terminal", "name": "Bootsstation Obere Schleuse"}, "geometry": {"type": "Point", "coordinates": [14.3875712, 50.9099232]}}, {"type": "Feature", "properties": {"amenity": "ferry_terminal", "name": "Vesla\u0159sk\u00fd ostrov", "operator": "PID (city transport)"}, "geometry": {"type": "Point", "coordinates": [14.4146446, 50.051373]}}, {"type": "Feature", "properties": {"amenity": "ferry_terminal", "name": "Star\u00e9 splavy"}, "geometry": {"type": "Point", "coordinates": [14.6347387, 50.589633]}}, {"type": "Feature", "properties": {"amenity": "ferry_terminal"}, "geometry": {"type": "Point", "coordinates": [14.3987281, 50.3190541]}}, {"type": "Feature", "properties": {"amenity": "ferry_terminal"}, "geometry": {"type": "Point", "coordinates": [14.3989432, 50.3196881]}}, {"type": "Feature", "properties": {"amenity": "ferry_terminal", "cargo": "passengers;bicycle", "name": "F\u00e4hre Johannstadt-Neustadt", "toilets:wheelchair": "no", "wheelchair": "yes"}, "geometry": {"type": "Point", "coordinates": [13.7664093, 51.0618568]}}, {"type": "Feature", "properties": {"amenity": "ferry_terminal", "cargo": "passengers;bicycle", "name": "F\u00e4hre Neustadt-Johannstadt", "wheelchair": "yes"}, "geometry": {"type": "Point", "coordinates": [13.765621, 51.0626522]}}, {"type": "Feature", "properties": {"amenity": "ferry_terminal", "cargo": "False", "name": "Lipno Line", "operator": "Rosenberger Lipno Line"}, "geometry": {"type": "Point", "coordinates": [14.2255995, 48.6354146]}}, {"type": "Feature", "properties": {"amenity": "ferry_terminal", "cargo": "0", "operator": "Lipno Line"}, "geometry": {"type": "Point", "coordinates": [14.074429, 48.6971184]}}, {"type": "Feature", "properties": {"amenity": "ferry_terminal", "cargo": "0", "name": "Lipno Line", "operator": "Lipno Line"}, "geometry": {"type": "Point", "coordinates": [14.1718897, 48.6328345]}}, {"type": "Feature", "properties": {"amenity": "ferry_terminal", "cargo": "0", "name": "Lipno Line", "operator": "Lipno LIne"}, "geometry": {"type": "Point", "coordinates": [14.0982899, 48.7367024]}}, {"type": "Feature", "properties": {"amenity": "ferry_terminal", "name": "Lipno Line", "operator": "Lipno Line"}, "geometry": {"type": "Point", "coordinates": [14.164725, 48.6585225]}}, {"type": "Feature", "properties": {"amenity": "ferry_terminal", "cargo": "0", "name": "Lipno Line", "operator": "Lipno Line"}, "geometry": {"type": "Point", "coordinates": [14.0208811, 48.7596637]}}, {"type": "Feature", "properties": {"amenity": "ferry_terminal"}, "geometry": {"type": "Point", "coordinates": [14.2525181, 49.6663821]}}, {"type": "Feature", "properties": {"amenity": "ferry_terminal", "name": "Schiffsanlegestelle", "wheelchair": "yes"}, "geometry": {"type": "Point", "coordinates": [13.6395685, 48.553626]}}, {"type": "Feature", "properties": {"amenity": "ferry_terminal", "name": "Schiffsanlegestelle"}, "geometry": {"type": "Point", "coordinates": [13.6540095, 48.5464369]}}, {"type": "Feature", "properties": {"amenity": "ferry_terminal"}, "geometry": {"type": "Point", "coordinates": [14.7714939, 49.0009406]}}, {"type": "Feature", "properties": {"amenity": "ferry_terminal", "name:de": "Bootsanlegestelle Obere Wilde Klamm"}, "geometry": {"type": "Point", "coordinates": [14.3075383, 50.863877]}}, {"type": "Feature", "properties": {"amenity": "ferry_terminal"}, "geometry": {"type": "Point", "coordinates": [13.8326855, 50.0119294]}}, {"type": "Feature", "properties": {"amenity": "ferry_terminal"}, "geometry": {"type": "Point", "coordinates": [13.8335611, 50.0119418]}}, {"type": "Feature", "properties": {"amenity": "ferry_terminal", "name": "\u010cesk\u00e9 Vrbn\u00e9"}, "geometry": {"type": "Point", "coordinates": [14.4553784, 49.0124621]}}, {"type": "Feature", "properties": {"amenity": "ferry_terminal", "name": "\u010cesk\u00e9 Bud\u011bjovice"}, "geometry": {"type": "Point", "coordinates": [14.4654108, 48.9788387]}}, {"type": "Feature", "properties": {"amenity": "ferry_terminal", "man_made": "pier", "name": "Pasohl\u00e1vky p\u0159\u00edstav", "operator": "Plavby P\u00e1lava", "source": "uhul:ortofoto"}, "geometry": {"type": "Point", "coordinates": [16.5387393, 48.9013985]}}, {"type": "Feature", "properties": {"amenity": "ferry_terminal", "man_made": "pier", "name": "ATC Merkur", "operator": "Plavby P\u00e1lava"}, "geometry": {"type": "Point", "coordinates": [16.5764062, 48.9017287]}}, {"type": "Feature", "properties": {"amenity": "ferry_terminal", "ferry": "yes", "name": "Doksy", "public_transport": "platform"}, "geometry": {"type": "Point", "coordinates": [14.6509369, 50.5761474]}}, {"type": "Feature", "properties": {"amenity": "ferry_terminal", "name": "Kemp Born\u00fd"}, "geometry": {"type": "Point", "coordinates": [14.6556904, 50.5874218]}}, {"type": "Feature", "properties": {"amenity": "ferry_terminal", "cargo": "passengers", "name": "P\u0159\u00edstavi\u0161t\u011b \u0160rouben\u00fd"}, "geometry": {"type": "Point", "coordinates": [14.6443838, 50.591519]}}, {"type": "Feature", "properties": {"amenity": "ferry_terminal", "cargo": "passengers", "name": "Krippen"}, "geometry": {"type": "Point", "coordinates": [14.1673619, 50.9131056]}}, {"type": "Feature", "properties": {"amenity": "ferry_terminal", "cargo": "passengers", "name": "Postelwitz"}, "geometry": {"type": "Point", "coordinates": [14.1677044, 50.9139343]}}, {"type": "Feature", "properties": {"amenity": "ferry_terminal", "cargo": "passengers", "name": "B\u00edtov - Horka camp", "operator": "OSOBN\u00cd LODN\u00cd DOPRAVA s.r.o."}, "geometry": {"type": "Point", "coordinates": [15.7197482, 48.9369109]}}, {"type": "Feature", "properties": {"amenity": "ferry_terminal", "cargo": "passengers", "name": "B\u00edtov - camp", "operator": "Lodn\u00ed doprava Vranov s.r.o."}, "geometry": {"type": "Point", "coordinates": [15.7243812, 48.9368938]}}, {"type": "Feature", "properties": {"amenity": "ferry_terminal", "cargo": "passengers", "name": "B\u00edtov hrad"}, "geometry": {"type": "Point", "coordinates": [15.7018882, 48.941907]}}, {"type": "Feature", "properties": {"amenity": "ferry_terminal", "cargo": "passengers", "name": "Chmelnice"}, "geometry": {"type": "Point", "coordinates": [15.7051727, 48.9328749]}}, {"type": "Feature", "properties": {"amenity": "ferry_terminal", "cargo": "passengers", "name": "Lan\u010dov"}, "geometry": {"type": "Point", "coordinates": [15.7902972, 48.9141849]}}, {"type": "Feature", "properties": {"amenity": "ferry_terminal", "cargo": "passengers", "name": "Vranov - hr\u00e1z", "ref": "3"}, "geometry": {"type": "Point", "coordinates": [15.8212579, 48.9099606]}}, {"type": "Feature", "properties": {"amenity": "ferry_terminal", "cargo": "passengers", "name": "Vranov hr\u00e1z", "ref": "1"}, "geometry": {"type": "Point", "coordinates": [15.8199289, 48.9080951]}}, {"type": "Feature", "properties": {"amenity": "ferry_terminal", "cargo": "passengers", "name": "Vranov hr\u00e1z", "ref": "2"}, "geometry": {"type": "Point", "coordinates": [15.8202892, 48.9086112]}}, {"type": "Feature", "properties": {"amenity": "ferry_terminal", "name": "Me\u010dkov"}, "geometry": {"type": "Point", "coordinates": [16.4549196, 49.2611205]}}, {"type": "Feature", "properties": {"amenity": "ferry_terminal", "cargo": "passengers", "name": "C\u00edsa\u0159sk\u00e1 louka"}, "geometry": {"type": "Point", "coordinates": [14.4130943, 50.0646453]}}, {"type": "Feature", "properties": {"amenity": "ferry_terminal"}, "geometry": {"type": "Point", "coordinates": [14.166964, 49.5128448]}}, {"type": "Feature", "properties": {"amenity": "ferry_terminal", "name": "P\u0159\u00edstavi\u0161t\u011b z\u00e1mek"}, "geometry": {"type": "Point", "coordinates": [16.8083018, 48.8033656]}}, {"type": "Feature", "properties": {"amenity": "ferry_terminal", "cargo": "passengers", "wheelchair": "no"}, "geometry": {"type": "Point", "coordinates": [16.1164558, 50.6067447]}}, {"type": "Feature", "properties": {"amenity": "ferry_terminal", "name": "F\u00e4hre Marienthal"}, "geometry": {"type": "Point", "coordinates": [12.1740562, 49.2226331]}}, {"type": "Feature", "properties": {"amenity": "ferry_terminal", "cargo": "passengers", "name": "Ostrov \u0160tvanice", "wheelchair": "no"}, "geometry": {"type": "Point", "coordinates": [14.4479542, 50.0969341]}}, {"type": "Feature", "properties": {"amenity": "ferry_terminal", "cargo": "passengers", "name": "Rohansk\u00fd ostrov", "wheelchair": "no"}, "geometry": {"type": "Point", "coordinates": [14.4500058, 50.0969824]}}, {"type": "Feature", "properties": {"amenity": "ferry_terminal", "cargo": "passengers", "name": "Pra\u017esk\u00e1 tr\u017enice"}, "geometry": {"type": "Point", "coordinates": [14.4463278, 50.0981015]}}, {"type": "Feature", "properties": {"amenity": "ferry_terminal", "cargo": "passengers", "wheelchair": "no"}, "geometry": {"type": "Point", "coordinates": [16.116079, 50.6070286]}}, {"type": "Feature", "properties": {"amenity": "ferry_terminal", "name": "Rekrea\u010dn\u00fd pr\u00edstav Gbely Adamov"}, "geometry": {"type": "Point", "coordinates": [17.0228648, 48.7355193]}}, {"type": "Feature", "properties": {"amenity": "ferry_terminal", "name": "Rekrea\u010dn\u00ed p\u0159\u00edstav Tvrdonice"}, "geometry": {"type": "Point", "coordinates": [17.0274665, 48.7446601]}}, {"type": "Feature", "properties": {"amenity": "ferry_terminal"}, "geometry": {"type": "Point", "coordinates": [13.883434, 50.9802661]}}, {"type": "Feature", "properties": {"amenity": "ferry_terminal", "name": "Lauenhain", "wheelchair": "no"}, "geometry": {"type": "Point", "coordinates": [12.9883931, 51.0058438]}}, {"type": "Feature", "properties": {"amenity": "ferry_terminal", "cargo": "passenger transport", "name": "Keramika", "source": "shipping station"}, "geometry": {"type": "Point", "coordinates": [13.1619202, 49.7887373]}}, {"type": "Feature", "properties": {"amenity": "ferry_terminal", "cargo": "passengers", "name": "Na Radosti", "source": "survey"}, "geometry": {"type": "Point", "coordinates": [13.1343466, 49.7958029]}}, {"type": "Feature", "properties": {"amenity": "ferry_terminal", "cargo": "passenger transport", "name": "Automobilov\u00fd most", "source": "shipping station"}, "geometry": {"type": "Point", "coordinates": [13.1010053, 49.7972746]}}, {"type": "Feature", "properties": {"amenity": "ferry_terminal", "cargo": "passenger transport", "leisure": "marina", "name": "\u0160koda", "source": "shipping station"}, "geometry": {"type": "Point", "coordinates": [13.0608562, 49.76775]}}, {"type": "Feature", "properties": {"amenity": "ferry_terminal", "cargo": "passenger transport", "leisure": "marina", "name": "Vranov", "source": "shipping station"}, "geometry": {"type": "Point", "coordinates": [13.0511122, 49.7652918]}}, {"type": "Feature", "properties": {"amenity": "ferry_terminal", "cargo": "passenger transport", "leisure": "marina", "name": "Butov", "source": "shipping station"}, "geometry": {"type": "Point", "coordinates": [13.0430674, 49.7669632]}}, {"type": "Feature", "properties": {"amenity": "ferry_terminal", "cargo": "passengers", "name": "Kotevn\u00ed"}, "geometry": {"type": "Point", "coordinates": [14.4124189, 50.0651599]}}, {"type": "Feature", "properties": {"amenity": "ferry_terminal", "cargo": "passengers", "name": "Troja"}, "geometry": {"type": "Point", "coordinates": [14.4171382, 50.1146183]}}, {"type": "Feature", "properties": {"amenity": "ferry_terminal", "cargo": "passengers", "name": "C\u00edsa\u0159sk\u00fd ostrov"}, "geometry": {"type": "Point", "coordinates": [14.4170025, 50.1142377]}}, {"type": "Feature", "properties": {"addr:city": "D\u011b\u010d\u00edn", "addr:street": "Labsk\u00e1", "amenity": "ferry_terminal", "ferry": "yes", "name": "D\u011b\u010d\u00edn", "operator": "Labsk\u00e1 plavebn\u00ed", "public_transport": "station"}, "geometry": {"type": "Point", "coordinates": [14.2085648, 50.7812858]}}, {"type": "Feature", "properties": {"amenity": "ferry_terminal", "cargo": "passengers", "name": "Sk\u00e1ly"}, "geometry": {"type": "Point", "coordinates": [16.4566934, 49.265517]}}, {"type": "Feature", "properties": {"amenity": "ferry_terminal"}, "geometry": {"type": "Point", "coordinates": [14.3527539, 50.1700198]}}, {"type": "Feature", "properties": {"amenity": "ferry_terminal"}, "geometry": {"type": "Point", "coordinates": [14.3535646, 50.1706286]}}]}